0 SL-14 DEB
1 19295U 78100AE  13284.17569512  .00000421  00000-0  33109-2 0    15
2 19295 081.9849 005.8614 0506128 228.3726 157.9517 12.04895953114853
0 SL-14 DEB
1 19295U 78100AE  13286.69760715  .00000333  00000-0  26022-2 0    21
2 19295 081.9845 004.2940 0506677 223.4100 296.9699 12.04899933115167
0 SL-14 DEB
1 19295U 78100AE  13289.15836649  .00000253  00000-0  19655-2 0    31
2 19295 081.9847 002.7656 0506857 218.5183 170.7957 12.04902680115454
0 SL-14 DEB
1 19295U 78100AE  13295.13729642  .00000020  00000-0  98902-4 0    47
2 19295 081.9847 359.0513 0506934 206.6067 185.1820 12.04905993116178
